[{"OBJECT_NAME":"TIANMU-1 19","OBJECT_ID":"2023-208A","EPOCH":"2026-03-09T22:13:36.801696","MEAN_MOTION":15.2984143,"ECCENTRICITY":0.00039292,"INCLINATION":97.4383,"RA_OF_ASC_NODE":184.9132,"ARG_OF_PERICENTER":316.2611,"MEAN_ANOMALY":43.8317,"EPHEMERIS_TYPE":0,"CLASSIFICATION_TYPE":"U","NORAD_CAT_ID":58660,"ELEMENT_SET_NO":999,"REV_AT_EPOCH":12214,"BSTAR":0.00040995676,"MEAN_MOTION_DOT":0.00011779,"MEAN_MOTION_DDOT":0},{"OBJECT_NAME":"STARLINK-35705","OBJECT_ID":"2025-294K","EPOCH":"2026-03-09T23:15:18.049824","MEAN_MOTION":15.2759034,"ECCENTRICITY":0.00014908,"INCLINATION":43.0037,"RA_OF_ASC_NODE":36.3444,"ARG_OF_PERICENTER":249.2115,"MEAN_ANOMALY":110.8577,"EPHEMERIS_TYPE":0,"CLASSIFICATION_TYPE":"U","NORAD_CAT_ID":67039,"ELEMENT_SET_NO":999,"REV_AT_EPOCH":1484,"BSTAR":0.0011698108,"MEAN_MOTION_DOT":0.00032079,"MEAN_MOTION_DDOT":0}]
